SAUDISAT 1C             
1 27607U 02058C   23249.05316273  .00001980  00000+0  28792-3 0  9992
2 27607  64.5573  16.9660 0060587 207.7266 152.0604 14.77563998114382
SAUDISAT 2              
1 28371U 04025F   23249.32743843  .00000454  00000+0  11599-3 0  9996
2 28371  98.4407 213.7307 0025493 171.3200 188.8443 14.55023367 18118
SAUDISAT 3              
1 31118U 07012B   23249.09406501  .00000428  00000+0  79835-4 0  9998
2 31118  98.0177 191.8918 0014160 212.9877 147.0446 14.69776793878607
PISAT                   
1 41784U 16059B   23249.27839165  .00001093  00000+0  21173-3 0  9995
2 41784  97.8653 279.0894 0030827 195.3836 164.6434 14.64893538370939
FLYING LAPTOP           
1 42831U 17042G   23248.83720029  .00001516  00000+0  14932-3 0  9996
2 42831  97.3892  81.7235 0012418 321.5342  38.4993 14.93359873334525
SALSAT                  
1 46495U 20068K   23248.53618666  .00004552  00000+0  29533-3 0  9994
2 46495  97.7754 197.4557 0014476 200.2136 159.8521 15.08518352161189
